ONEWEB-0283             
1 49001U 21060AL  25224.68968903  .00000016  00000+0  95233-5 0  9990
2 49001  87.9022 290.2796 0002085  91.6907 268.4463 13.16594080199027
ONEWEB-0284             
1 49002U 21060AM  25224.68334980  .00000012  00000+0 -17013-5 0  9990
2 49002  87.9039 290.2571 0001718  99.8782 260.2543 13.16592675199005
ONEWEB-0285             
1 49075U 21075A   25224.75720417  .00000173  00000+0  44659-3 0  9999
2 49075  87.8847  51.9642 0001717  88.0572 272.0753 13.12440582194754
ONEWEB-0286             
1 49076U 21075B   25224.58660883  .00000444  00000+0  11985-2 0  9997
2 49076  87.8868  52.0287 0001803  94.3364 265.7971 13.12443748194084
ONEWEB-0287             
1 49077U 21075C   25224.78986105  .00000046  00000+0  84004-4 0  9990
2 49077  87.9035  67.2336 0001726 101.0876 259.0450 13.17651812193011
ONEWEB-0288             
1 49078U 21075D   25224.56241194 -.00000124  00000+0 -38002-3 0  9994
2 49078  87.8855  51.9972 0001610  91.4313 268.7000 13.12444436194709
ONEWEB-0289             
1 49079U 21075E   25224.60054725 -.00002382  00000+0 -61919-2 0  9992
2 49079  87.8995  67.2940 0001379  77.7904 282.3382 13.17408365193569
ONEWEB-0290             
1 49080U 21075F   25224.57386477 -.00000006  00000+0 -47862-4 0  9996
2 49080  87.9027  67.2588 0001431  65.4843 294.6437 13.17649806192979
